[Satellite]
VERSION=1.1
NAME=IRIDIUM 40 [-]
NICKNAME=IRIDIUM 40 [-]
TLE1=1 25041U 97069C   18020.89823364  .00051971 -63080-6  33394-3 0  9999
TLE2=2 25041  86.3779 269.4199 0198182 158.6044 202.3654 15.53677218 60475
